{
    "links": {
        "self": "http://www.neowsapp.com/rest/v1/neo/3353632?api_key=iIulBulltgU6a56xZRHN4H3l9WmuAYTsLGpBGhQ2"
    },
    "id": "3353632",
    "neo_reference_id": "3353632",
    "name": "(2006 UD64)",
    "designation": "2006 UD64",
    "nasa_jpl_url": "http://ssd.jpl.nasa.gov/sbdb.cgi?sstr=3353632",
    "absolute_magnitude_h": 20.2,
    "estimated_diameter": {
        "kilometers": {
            "estimated_diameter_min": 0.2424124811,
            "estimated_diameter_max": 0.5420507863
        },
        "meters": {
            "estimated_diameter_min": 242.4124811008,
            "estimated_diameter_max": 542.0507863358
        },
        "miles": {
            "estimated_diameter_min": 0.1506280858,
            "estimated_diameter_max": 0.3368146392
        },
        "feet": {
            "estimated_diameter_min": 795.3165644948,
            "estimated_diameter_max": 1778.3819018419
        }
    },
    "is_potentially_hazardous_asteroid": false,
    "close_approach_data": [
        {
            "close_approach_date": "2000-10-19",
            "close_approach_date_full": "2000-Oct-19 00:10",
            "epoch_date_close_approach": 971914200000,
            "relative_velocity": {
                "kilometers_per_second": "37.8060825533",
                "kilometers_per_hour": "136101.89719188",
                "miles_per_hour": "84568.4260634768"
            },
            "miss_distance": {
                "astronomical": "0.3555062604",
                "lunar": "138.2919352956",
                "kilometers": "53182979.327505348",
                "miles": "33046370.9735278824"
            },
            "orbiting_body": "Earth"
        },
        {
            "close_approach_date": "2003-11-06",
            "close_approach_date_full": "2003-Nov-06 09:37",
            "epoch_date_close_approach": 1068111420000,
            "relative_velocity": {
                "kilometers_per_second": "26.0544567687",
                "kilometers_per_hour": "93796.0443674075",
                "miles_per_hour": "58281.2143459594"
            },
            "miss_distance": {
                "astronomical": "0.1786058764",
                "lunar": "69.4776859196",
                "kilometers": "26719058.678923268",
                "miles": "16602453.1970983784"
            },
            "orbiting_body": "Earth"
        }
    ],
    "orbital_data": {
        "orbit_id": "12",
        "orbit_determination_date": "2017-04-06 09:07:47",
        "first_observation_date": "2006-10-23",
        "last_observation_date": "2006-11-20",
        "data_arc_in_days": 28,
        "observations_used": 25,
        "orbit_uncertainty": "7",
        "minimum_orbit_intersection": ".149281",
        "jupiter_tisserand_invariant": "3.140",
        "epoch_osculation": "2459000.5",
        "eccentricity": ".7914395358375823",
        "semi_major_axis": "2.111666919195693",
        "inclination": "29.81683462679196",
        "ascending_node_longitude": "205.7495231041947",
        "orbital_period": "1120.821753881771",
        "perihelion_distance": ".4404102328238763",
        "perihelion_argument": "303.9931692346577",
        "aphelion_distance": "3.78292360556751",
        "perihelion_time": "2458604.600635512320",
        "mean_anomaly": "127.1600686924201",
        "mean_motion": ".3211929093570878",
        "equinox": "J2000",
        "orbit_class": {
            "orbit_class_type": "APO",
            "orbit_class_description": "Near-Earth asteroid orbits which cross the Earth’s orbit similar to that of 1862 Apollo",
            "orbit_class_range": "a (semi-major axis) > 1.0 AU; q (perihelion) < 1.017 AU"
        }
    },
    "is_sentry_object": false
}